CCSDS_OMM_VERS = 2.0
CREATION_DATE  = 
ORIGINATOR     = 

OBJECT_NAME    = STARLINK-35583
OBJECT_ID      = 2025-270Z
CENTER_NAME    = EARTH
REF_FRAME      = TEME
TIME_SYSTEM    = UTC
MEAN_ELEMENT_THEORY = SGP/SGP4

EPOCH          = 2025-12-06T22:00:01.999584
MEAN_MOTION    = 15.67151631
ECCENTRICITY   = .00012421
INCLINATION    = 42.9987
RA_OF_ASC_NODE = 226.9619
ARG_OF_PERICENTER = 261.1176
MEAN_ANOMALY   = 272.9034

EPHEMERIS_TYPE = 0
CLASSIFICATION_TYPE = U
NORAD_CAT_ID   = 66611
ELEMENT_SET_NO = 999
REV_AT_EPOCH   = 357
BSTAR          = -.20669129E-1
MEAN_MOTION_DOT = -.2004165E-1
MEAN_MOTION_DDOT = 0

CCSDS_OMM_VERS = 2.0
CREATION_DATE  = 
ORIGINATOR     = 

OBJECT_NAME    = STARLINK-36039
OBJECT_ID      = 2025-270AA
CENTER_NAME    = EARTH
REF_FRAME      = TEME
TIME_SYSTEM    = UTC
MEAN_ELEMENT_THEORY = SGP/SGP4

EPOCH          = 2025-12-06T22:00:01.999584
MEAN_MOTION    = 15.67148346
ECCENTRICITY   = .00012624
INCLINATION    = 42.9988
RA_OF_ASC_NODE = 226.9567
ARG_OF_PERICENTER = 260.2371
MEAN_ANOMALY   = 275.7025

EPHEMERIS_TYPE = 0
CLASSIFICATION_TYPE = U
NORAD_CAT_ID   = 66612
ELEMENT_SET_NO = 999
REV_AT_EPOCH   = 346
BSTAR          = -.20622407E-1
MEAN_MOTION_DOT = -.1999961E-1
MEAN_MOTION_DDOT = 0

CCSDS_OMM_VERS = 2.0
CREATION_DATE  = 
ORIGINATOR     = 

OBJECT_NAME    = STARLINK-36037
OBJECT_ID      = 2025-270AB
CENTER_NAME    = EARTH
REF_FRAME      = TEME
TIME_SYSTEM    = UTC
MEAN_ELEMENT_THEORY = SGP/SGP4

EPOCH          = 2025-12-06T22:00:01.999584
MEAN_MOTION    = 15.67149473
ECCENTRICITY   = .00012294
INCLINATION    = 42.9990
RA_OF_ASC_NODE = 226.9520
ARG_OF_PERICENTER = 261.2173
MEAN_ANOMALY   = 276.6397

EPHEMERIS_TYPE = 0
CLASSIFICATION_TYPE = U
NORAD_CAT_ID   = 66613
ELEMENT_SET_NO = 999
REV_AT_EPOCH   = 346
BSTAR          = -.20643451E-1
MEAN_MOTION_DOT = -.200181E-1
MEAN_MOTION_DDOT = 0

CCSDS_OMM_VERS = 2.0
CREATION_DATE  = 
ORIGINATOR     = 

OBJECT_NAME    = STARLINK-36040
OBJECT_ID      = 2025-270AC
CENTER_NAME    = EARTH
REF_FRAME      = TEME
TIME_SYSTEM    = UTC
MEAN_ELEMENT_THEORY = SGP/SGP4

EPOCH          = 2025-12-06T22:00:01.999584
MEAN_MOTION    = 15.67149767
ECCENTRICITY   = .00013656
INCLINATION    = 42.9993
RA_OF_ASC_NODE = 226.9420
ARG_OF_PERICENTER = 264.9736
MEAN_ANOMALY   = 276.7157

EPHEMERIS_TYPE = 0
CLASSIFICATION_TYPE = U
NORAD_CAT_ID   = 66614
ELEMENT_SET_NO = 999
REV_AT_EPOCH   = 330
BSTAR          = -.20636531E-1
MEAN_MOTION_DOT = -.2001347E-1
MEAN_MOTION_DDOT = 0

CCSDS_OMM_VERS = 2.0
CREATION_DATE  = 
ORIGINATOR     = 

OBJECT_NAME    = STARLINK-35988
OBJECT_ID      = 2025-270AD
CENTER_NAME    = EARTH
REF_FRAME      = TEME
TIME_SYSTEM    = UTC
MEAN_ELEMENT_THEORY = SGP/SGP4

EPOCH          = 2025-12-06T22:00:01.999584
MEAN_MOTION    = 15.67151970
ECCENTRICITY   = .00012981
INCLINATION    = 42.9991
RA_OF_ASC_NODE = 226.9473
ARG_OF_PERICENTER = 261.5055
MEAN_ANOMALY   = 278.2658

EPHEMERIS_TYPE = 0
CLASSIFICATION_TYPE = U
NORAD_CAT_ID   = 66615
ELEMENT_SET_NO = 999
REV_AT_EPOCH   = 330
BSTAR          = -.20686297E-1
MEAN_MOTION_DOT = -.2005694E-1
MEAN_MOTION_DDOT = 0

CCSDS_OMM_VERS = 2.0
CREATION_DATE  = 
ORIGINATOR     = 

OBJECT_NAME    = STARLINK-35391
OBJECT_ID      = 2025-270AE
CENTER_NAME    = EARTH
REF_FRAME      = TEME
TIME_SYSTEM    = UTC
MEAN_ELEMENT_THEORY = SGP/SGP4

EPOCH          = 2025-12-06T22:00:01.999584
MEAN_MOTION    = 15.67148950
ECCENTRICITY   = .00012625
INCLINATION    = 42.9993
RA_OF_ASC_NODE = 226.9378
ARG_OF_PERICENTER = 259.8088
MEAN_ANOMALY   = 283.7958

EPHEMERIS_TYPE = 0
CLASSIFICATION_TYPE = U
NORAD_CAT_ID   = 66616
ELEMENT_SET_NO = 999
REV_AT_EPOCH   = 357
BSTAR          = -.20594765E-1
MEAN_MOTION_DOT = -.1997648E-1
MEAN_MOTION_DDOT = 0

CCSDS_OMM_VERS = 2.0
CREATION_DATE  = 
ORIGINATOR     = 

OBJECT_NAME    = STARLINK-35940
OBJECT_ID      = 2025-271A
CENTER_NAME    = EARTH
REF_FRAME      = TEME
TIME_SYSTEM    = UTC
MEAN_ELEMENT_THEORY = SGP/SGP4

EPOCH          = 2025-12-06T22:00:01.999584
MEAN_MOTION    = 15.74577218
ECCENTRICITY   = .00015189
INCLINATION    = 53.1582
RA_OF_ASC_NODE = 215.6329
ARG_OF_PERICENTER = 76.7176
MEAN_ANOMALY   = 357.7916

EPHEMERIS_TYPE = 0
CLASSIFICATION_TYPE = U
NORAD_CAT_ID   = 66617
ELEMENT_SET_NO = 999
REV_AT_EPOCH   = 330
BSTAR          = -.10301426E-1
MEAN_MOTION_DOT = -.1366172E-1
MEAN_MOTION_DDOT = 0

CCSDS_OMM_VERS = 2.0
CREATION_DATE  = 
ORIGINATOR     = 

OBJECT_NAME    = STARLINK-35970
OBJECT_ID      = 2025-271B
CENTER_NAME    = EARTH
REF_FRAME      = TEME
TIME_SYSTEM    = UTC
MEAN_ELEMENT_THEORY = SGP/SGP4

EPOCH          = 2025-12-06T22:00:01.999584
MEAN_MOTION    = 15.74583332
ECCENTRICITY   = .00009895
INCLINATION    = 53.1579
RA_OF_ASC_NODE = 215.5201
ARG_OF_PERICENTER = 92.2727
MEAN_ANOMALY   = 35.5624

EPHEMERIS_TYPE = 0
CLASSIFICATION_TYPE = U
NORAD_CAT_ID   = 66618
ELEMENT_SET_NO = 999
REV_AT_EPOCH   = 330
BSTAR          = -.10425575E-1
MEAN_MOTION_DOT = -.1380843E-1
MEAN_MOTION_DDOT = 0

CCSDS_OMM_VERS = 2.0
CREATION_DATE  = 
ORIGINATOR     = 

OBJECT_NAME    = STARLINK-35951
OBJECT_ID      = 2025-271C
CENTER_NAME    = EARTH
REF_FRAME      = TEME
TIME_SYSTEM    = UTC
MEAN_ELEMENT_THEORY = SGP/SGP4

EPOCH          = 2025-12-06T22:00:01.999584
MEAN_MOTION    = 15.74598756
ECCENTRICITY   = .00007315
INCLINATION    = 53.1580
RA_OF_ASC_NODE = 215.6162
ARG_OF_PERICENTER = 85.9058
MEAN_ANOMALY   = 356.2719

EPHEMERIS_TYPE = 0
CLASSIFICATION_TYPE = U
NORAD_CAT_ID   = 66619
ELEMENT_SET_NO = 999
REV_AT_EPOCH   = 330
BSTAR          = -.10643724E-1
MEAN_MOTION_DOT = -.1407157E-1
MEAN_MOTION_DDOT = 0

CCSDS_OMM_VERS = 2.0
CREATION_DATE  = 
ORIGINATOR     = 

OBJECT_NAME    = STARLINK-35936
OBJECT_ID      = 2025-271D
CENTER_NAME    = EARTH
REF_FRAME      = TEME
TIME_SYSTEM    = UTC
MEAN_ELEMENT_THEORY = SGP/SGP4

EPOCH          = 2025-12-06T22:00:01.999584
MEAN_MOTION    = 15.74592982
ECCENTRICITY   = .00013559
INCLINATION    = 53.1583
RA_OF_ASC_NODE = 215.6288
ARG_OF_PERICENTER = 63.0178
MEAN_ANOMALY   = 13.4099

EPHEMERIS_TYPE = 0
CLASSIFICATION_TYPE = U
NORAD_CAT_ID   = 66620
ELEMENT_SET_NO = 999
REV_AT_EPOCH   = 330
BSTAR          = -.10555829E-1
MEAN_MOTION_DOT = -.139688E-1
MEAN_MOTION_DDOT = 0

CCSDS_OMM_VERS = 2.0
CREATION_DATE  = 
ORIGINATOR     = 

OBJECT_NAME    = STARLINK-35847
OBJECT_ID      = 2025-271E
CENTER_NAME    = EARTH
REF_FRAME      = TEME
TIME_SYSTEM    = UTC
MEAN_ELEMENT_THEORY = SGP/SGP4

EPOCH          = 2025-12-06T22:00:01.999584
MEAN_MOTION    = 15.74578632
ECCENTRICITY   = .00011489
INCLINATION    = 53.1577
RA_OF_ASC_NODE = 215.5124
ARG_OF_PERICENTER = 87.1660
MEAN_ANOMALY   = 44.2088

EPHEMERIS_TYPE = 0
CLASSIFICATION_TYPE = U
NORAD_CAT_ID   = 66621
ELEMENT_SET_NO = 999
REV_AT_EPOCH   = 330
BSTAR          = -.10355992E-1
MEAN_MOTION_DOT = -.1372481E-1
MEAN_MOTION_DDOT = 0

CCSDS_OMM_VERS = 2.0
CREATION_DATE  = 
ORIGINATOR     = 

OBJECT_NAME    = STARLINK-35950
OBJECT_ID      = 2025-271F
CENTER_NAME    = EARTH
REF_FRAME      = TEME
TIME_SYSTEM    = UTC
MEAN_ELEMENT_THEORY = SGP/SGP4

EPOCH          = 2025-12-06T22:00:01.999584
MEAN_MOTION    = 15.74591892
ECCENTRICITY   = .0001509
INCLINATION    = 53.1581
RA_OF_ASC_NODE = 215.6123
ARG_OF_PERICENTER = 70.6386
MEAN_ANOMALY   = 13.4567

EPHEMERIS_TYPE = 0
CLASSIFICATION_TYPE = U
NORAD_CAT_ID   = 66622
ELEMENT_SET_NO = 999
REV_AT_EPOCH   = 330
BSTAR          = -.10509401E-1
MEAN_MOTION_DOT = -.1391455E-1
MEAN_MOTION_DDOT = 0

