STARLINK-35583          
1 66611U 25270Z   25340.91668981 -.02004165  00000+0 -20669-1 0  9991
2 66611  42.9987 226.9619 0001242 261.1176 272.9034 15.67151631  3577
STARLINK-36039          
1 66612U 25270AA  25340.91668981 -.01999961  00000+0 -20622-1 0  9997
2 66612  42.9988 226.9567 0001262 260.2371 275.7025 15.67148346  3468
STARLINK-36037          
1 66613U 25270AB  25340.91668981 -.02001810  00000+0 -20643-1 0  9999
2 66613  42.9990 226.9520 0001229 261.2173 276.6397 15.67149473  3469
STARLINK-36040          
1 66614U 25270AC  25340.91668981 -.02001347  00000+0 -20637-1 0  9998
2 66614  42.9993 226.9420 0001365 264.9736 276.7157 15.67149767  3302
STARLINK-35988          
1 66615U 25270AD  25340.91668981 -.02005694  00000+0 -20686-1 0  9992
2 66615  42.9991 226.9473 0001298 261.5055 278.2658 15.67151970  3303
STARLINK-35391          
1 66616U 25270AE  25340.91668981 -.01997648  00000+0 -20595-1 0  9990
2 66616  42.9993 226.9378 0001262 259.8088 283.7958 15.67148950  3574
STARLINK-35940          
1 66617U 25271A   25340.91668981 -.01366172  00000+0 -10301-1 0  9998
2 66617  53.1582 215.6329 0001518  76.7176 357.7916 15.74577218  3300
STARLINK-35970          
1 66618U 25271B   25340.91668981 -.01380843  00000+0 -10426-1 0  9998
2 66618  53.1579 215.5201 0000989  92.2727  35.5624 15.74583332  3302
STARLINK-35951          
1 66619U 25271C   25340.91668981 -.01407157  00000+0 -10644-1 0  9999
2 66619  53.1580 215.6162 0000731  85.9058 356.2719 15.74598756  3307
STARLINK-35936          
1 66620U 25271D   25340.91668981 -.01396880  00000+0 -10556-1 0  9993
2 66620  53.1583 215.6288 0001355  63.0178  13.4099 15.74592982  3302
STARLINK-35847          
1 66621U 25271E   25340.91668981 -.01372481  00000+0 -10356-1 0  9993
2 66621  53.1577 215.5124 0001148  87.1660  44.2088 15.74578632  3303
STARLINK-35950          
1 66622U 25271F   25340.91668981 -.01391455  00000+0 -10509-1 0  9996
2 66622  53.1581 215.6123 0001509  70.6386  13.4567 15.74591892  3305
